NORAD_CAT_ID,OBJECT_NAME,OBJECT_TYPE,EPOCH,MEAN_MOTION,ECCENTRICITY,INCLINATION,RA_OF_ASC_NODE,ARG_OF_PERICENTER,MEAN_ANOMALY,BSTAR,MEAN_MOTION_DOT,MEAN_MOTION_DDOT,TLE_LINE0,TLE_LINE1,TLE_LINE2,SEMIMAJOR_AXIS,PERIOD,APOGEE,PERIGEE,DECAYED
51973.0,STARLINK-3679,PAYLOAD,2022-04-16 14:00:01,15.73096802,0.0001255,53.2144,311.6063,121.8408,187.3289,-0.0001931,-0.00027511,0.0,0 STARLINK-3679,1 51973U 22025T   22106.58334491 -.00027511  00000-0 -19310-3 0  9999,2 51973  53.2144 311.6063 0001255 121.8408 187.3289 15.73096802  7256,6728.189,91.539,350.899,349.21,0.0
51973.0,STARLINK-3679,PAYLOAD,2022-04-16 22:00:01,15.73074052,9.63e-05,53.2146,309.959,111.9308,286.1149,0.00049521,0.00069077,0.0,0 STARLINK-3679,1 51973U 22025T   22106.91668981  .00069077  00000-0  49521-3 0  9998,2 51973  53.2146 309.9590 0000963 111.9308 286.1149 15.73074052  7309,6728.254,91.541,350.767,349.471,0.0
51973.0,STARLINK-3679,PAYLOAD,2022-04-17 14:00:01,15.73209312,0.0001146,53.2146,306.6581,118.3656,97.2689,0.00060459,0.00085128,0.0,0 STARLINK-3679,1 51973U 22025T   22107.58334491  .00085128  00000-0  60459-3 0  9996,2 51973  53.2146 306.6581 0001146 118.3656  97.2689 15.73209312  7404,6727.869000000002,91.533,350.505,348.963,0.0
51973.0,STARLINK-3679,PAYLOAD,2022-04-17 22:00:00,15.73273397,9.8e-05,53.2143,305.0103,102.9163,201.7271,-0.00016969,-0.0002444,0.0,0 STARLINK-3679,1 51973U 22025T   22107.91667824 -.00024440  00000-0 -16969-3 0  9991,2 51973  53.2143 305.0103 0000980 102.9163 201.7271 15.73273397  3703,6727.686,91.529,350.21,348.892,0.0
51973.0,STARLINK-3679,PAYLOAD,2022-04-18 08:00:01,15.7325171,9.64e-05,53.2139,302.946,115.1771,30.73,-0.00031453,-0.00044624,0.0,0 STARLINK-3679,1 51973U 22025T   22108.33334491 -.00044624  00000-0 -31453-3 0  9990,2 51973  53.2139 302.9460 0000964 115.1771  30.7300 15.73251710  7525,6727.748000000001,91.53,350.261,348.964,0.0
51973.0,STARLINK-3679,PAYLOAD,2022-04-18 14:00:01,15.73219339,0.0001174,53.2142,301.7086,114.3872,8.244,-0.00010822,-0.00015792,0.0,0 STARLINK-3679,1 51973U 22025T   22108.58334491 -.00015792  00000-0 -10822-3 0  9998,2 51973  53.2142 301.7086 0001174 114.3872   8.2440 15.73219339  3709,6727.84,91.532,350.495,348.915,0.0
51973.0,STARLINK-3679,PAYLOAD,2022-04-18 22:00:00,15.73180989,9.9e-05,53.2145,300.061,98.9263,112.6623,0.00012151,0.00016453,0.0,0 STARLINK-3679,1 51973U 22025T   22108.91667824  .00016453  00000-0  12151-3 0  9994,2 51973  53.2145 300.0610 0000990  98.9263 112.6623 15.73180989  3704,6727.949000000001,91.534,350.48,349.148,0.0
51973.0,STARLINK-3679,PAYLOAD,2022-04-19 06:00:00,15.7320497,9.82e-05,53.2145,298.4097,106.064,194.4606,-0.00023284,-0.00033174,0.0,0 STARLINK-3679,1 51973U 22025T   22109.25001157 -.00033174  00000-0 -23284-3 0  9993,2 51973  53.2145 298.4097 0000982 106.0640 194.4606 15.73204970  7670,6727.880999999999,91.533,350.407,349.085,0.0
51973.0,STARLINK-3679,PAYLOAD,2022-04-19 14:00:01,15.732042600000002,0.0001065,53.2147,296.7597,106.5173,282.9173,0.00028728,0.00039897,0.0,0 STARLINK-3679,1 51973U 22025T   22109.58334491  .00039897  00000-0  28728-3 0  9993,2 51973  53.2147 296.7597 0001065 106.5173 282.9173 15.73204260  7727,6727.8830000000025,91.533,350.465,349.032,0.0
51973.0,STARLINK-3679,PAYLOAD,2022-04-20 06:00:00,15.73196393,8.78e-05,53.2141,293.4605,100.2735,107.0828,-3.0532e-05,-4.901e-05,0.0,0 STARLINK-3679,1 51973U 22025T   22110.25001157 -.00004901  00000-0 -30532-4 0  9996,2 51973  53.2141 293.4605 0000878 100.2735 107.0828 15.73196393  7823,6727.905,91.533,350.361,349.18,0.0
51973.0,STARLINK-3679,PAYLOAD,2022-04-20 14:00:01,15.73209208,0.0001115,53.2144,291.811,102.8239,193.4468,-0.00024777,-0.0003526,0.0,0 STARLINK-3679,1 51973U 22025T   22110.58334491 -.00035260  00000-0 -24777-3 0  9997,2 51973  53.2144 291.8110 0001115 102.8239 193.4468 15.73209208  3703,6727.869000000002,91.533,350.4840000000001,348.9840000000001,0.0
51973.0,STARLINK-3679,PAYLOAD,2022-04-20 22:00:00,15.73193346,0.0001198,53.2145,290.1634,86.6347,298.5647,-1.7528e-05,-3.078e-05,0.0,0 STARLINK-3679,1 51973U 22025T   22110.91667824 -.00003078  00000-0 -17528-4 0  9992,2 51973  53.2145 290.1634 0001198  86.6347 298.5647 15.73193346  3685,6727.9140000000025,91.534,350.585,348.973,0.0
51973.0,STARLINK-3679,PAYLOAD,2022-04-21 06:00:00,15.73259403,0.0001172,53.216,288.5029,91.6481,22.4558,-0.0023633,-0.0032077,0.0,0 STARLINK-3679,1 51973U 22025T   22111.25001157 -.00320770  00000-0 -23633-2 0  9994,2 51973  53.2160 288.5029 0001172  91.6481  22.4558 15.73259403  7987,6727.726,91.53,350.379,348.802,0.0
51973.0,STARLINK-3679,PAYLOAD,2022-04-21 14:00:01,15.73250806,0.0001274999999999,53.2148,286.8626,94.2518,108.7639,-0.00031846,-0.00045171,0.0,0 STARLINK-3679,1 51973U 22025T   22111.58334491 -.00045171  00000-0 -31846-3 0  9995,2 51973  53.2148 286.8626 0001275  94.2518 108.7639 15.73250806  3714,6727.75,91.53,350.473,348.7580000000001,0.0
51973.0,STARLINK-3679,PAYLOAD,2022-04-21 22:00:00,15.73216117,0.0001222,53.2143,285.2147,77.3243,214.7082,9.9323e-05,0.00013351,0.0,0 STARLINK-3679,1 51973U 22025T   22111.91667824  .00013351  00000-0  99323-4 0  9999,2 51973  53.2143 285.2147 0001222  77.3243 214.7082 15.73216117  3716,6727.849,91.532,350.536,348.892,0.0
51973.0,STARLINK-3679,PAYLOAD,2022-04-22 06:00:00,15.73210517,0.0001218,53.214,283.5631,88.3996,292.5897,0.00056651,0.00079679,0.0,0 STARLINK-3679,1 51973U 22025T   22112.25001157  .00079679  00000-0  56651-3 0  9999,2 51973  53.2140 283.5631 0001218  88.3996 292.5897 15.73210517  8142,6727.865,91.533,350.55,348.911,0.0
51973.0,STARLINK-3679,PAYLOAD,2022-04-22 14:00:01,15.73273225,0.0001269,53.2142,281.9139,88.5125,21.4158,-0.00078515,-0.00109727,0.0,0 STARLINK-3679,1 51973U 22025T   22112.58334491 -.00109727  00000-0 -78515-3 0  9998,2 51973  53.2142 281.9139 0001269  88.5125  21.4158 15.73273225  3702,6727.686,91.529,350.405,348.6980000000001,0.0
51973.0,STARLINK-3679,PAYLOAD,2022-04-22 16:00:00,15.73249,0.000125,53.2142,281.5022,84.8771,137.3045,-0.00070444,-0.00098539,0.0,0 STARLINK-3679,1 51973U 22025T   22112.66667824 -.00098539  00000-0 -70444-3 0  9997,2 51973  53.2142 281.5022 0001250  84.8771 137.3045 15.73249000  8212,6727.755,91.53,350.461,348.78,0.0
51973.0,STARLINK-3679,PAYLOAD,2022-04-23 06:00:02,15.73117187,0.0001057,53.2143,278.6144,80.3006,207.5786,0.00035807,0.00049752,0.0,0 STARLINK-3679,1 51973U 22025T   22113.25002315  .00049752  00000-0  35807-3 0  9996,2 51973  53.2143 278.6144 0001057  80.3006 207.5786 15.73117187  8304,6728.130999999999,91.538,350.707,349.285,0.0
51973.0,STARLINK-3679,PAYLOAD,2022-04-23 14:00:01,15.73224953,0.0001496999999999,53.2178,276.9485,82.64200000000002,293.8427,-0.00036161,-0.00051117,0.0,0 STARLINK-3679,1 51973U 22025T   22113.58334491 -.00051117  00000-0 -36161-3 0  9999,2 51973  53.2178 276.9485 0001497  82.6420 293.8427 15.73224953  8359,6727.824000000001,91.532,350.696,348.682,0.0
51973.0,STARLINK-3679,PAYLOAD,2022-04-23 22:00:00,15.7272108,0.000127,53.2165,275.305,85.2143,20.522,0.00080892,0.00112108,0.0,0 STARLINK-3679,1 51973U 22025T   22113.91667824  .00112108  00000-0  80892-3 0  9991,2 51973  53.2165 275.3050 0001270  85.2143  20.5220 15.72721080  8400,6729.261,91.561,351.981,350.271,0.0
51973.0,STARLINK-3679,PAYLOAD,2022-04-24 06:00:00,15.72807785,0.0001169,53.2174,273.6518,74.7226,119.4441,-0.0056391,-0.00715769,0.0,0 STARLINK-3679,1 51973U 22025T   22114.25001157 -.00715769  00000-0 -56391-2 0  9990,2 51973  53.2174 273.6518 0001169  74.7226 119.4441 15.72807785  8457,6729.014,91.556,351.665,350.092,0.0
51973.0,STARLINK-3679,PAYLOAD,2022-04-24 14:00:01,15.72299632,0.000114,53.2176,272.0065,88.2445,194.0669,-0.0057919,-0.00719026,0.0,0 STARLINK-3679,1 51973U 22025T   22114.58334491 -.00719026  00000-0 -57919-2 0  9993,2 51973  53.2176 272.0065 0001140  88.2445 194.0669 15.72299632  3701,6730.4630000000025,91.586,353.096,351.561,0.0
51973.0,STARLINK-3679,PAYLOAD,2022-04-25 06:00:00,15.71277397,0.0001085,53.2175,268.7171,64.809,31.9572,-0.0060123999999999,-0.00714943,0.0,0 STARLINK-3679,1 51973U 22025T   22115.25001157 -.00714943  00000-0 -60124-2 0  9993,2 51973  53.2175 268.7171 0001085  64.8090  31.9572 15.71277397  8614,6733.382,91.645,355.978,354.517,0.0
51973.0,STARLINK-3679,PAYLOAD,2022-04-25 14:00:01,15.70768043,0.0001296999999999,53.2177,267.0755,65.3193,117.7538,-0.0061508,-0.00715788,0.0,0 STARLINK-3679,1 51973U 22025T   22115.58334491 -.00715788  00000-0 -61508-2 0  9994,2 51973  53.2177 267.0755 0001297  65.3193 117.7538 15.70768043  3725,6734.8380000000025,91.675,357.576,355.829,0.0
51973.0,STARLINK-3679,PAYLOAD,2022-04-25 22:00:00,15.70258345,0.0001139,53.2173,265.4352,77.0175,191.7493,-0.0062796,-0.00715272,0.0,0 STARLINK-3679,1 51973U 22025T   22115.91667824 -.00715272  00000-0 -62796-2 0  9998,2 51973  53.2173 265.4352 0001139  77.0175 191.7493 15.70258345  3700,6736.295,91.705,358.927,357.39300000000014,0.0
51973.0,STARLINK-3679,PAYLOAD,2022-04-26 06:00:00,15.6974781,0.0001073,53.2174,263.7934,59.5827,294.2679,-0.006417,-0.00715423,0.0,0 STARLINK-3679,1 51973U 22025T   22116.25001157 -.00715423  00000-0 -64170-2 0  9993,2 51973  53.2174 263.7934 0001073  59.5827 294.2679 15.69747810  8779,6737.755999999999,91.734,360.344,358.898,0.0
51973.0,STARLINK-3679,PAYLOAD,2022-04-26 14:00:01,15.69239526,0.0001334,53.2175,262.1558,46.9295,31.4543,-0.0065799,-0.00718025,0.0,0 STARLINK-3679,1 51973U 22025T   22116.58335648 -.00718025  00000-0 -65799-2 0  9993,2 51973  53.2175 262.1558 0001334  46.9295  31.4543 15.69239526  3691,6739.21,91.764,361.974,360.176,0.0
51973.0,STARLINK-3679,PAYLOAD,2022-04-26 22:00:00,15.68728981,0.0001348,53.2171,260.5192,52.1285,110.0459,-0.006706,-0.00716564,0.0,0 STARLINK-3679,1 51973U 22025T   22116.91667824 -.00716564  00000-0 -67060-2 0  9993,2 51973  53.2171 260.5192 0001348  52.1285 110.0459 15.68728981  3660,6740.6730000000025,91.794,363.446,361.629,0.0
